STARLINK-11310 [DTC]    
1 61212U 24171N   26194.48926332 -.00003132  00000+0 -21020-4 0  9995
2 61212  53.1589 276.3574 0000941  56.5295 303.5812 15.69690501104150
STARLINK-32386          
1 61213U 24171P   26194.13197269  .00003388  00000+0  11136-3 0  9994
2 61213  53.1598  97.6968 0001342  94.6164 265.4992 15.34398816101604
STARLINK-32392          
1 61214U 24171Q   26194.14248913  .00001729  00000+0  62288-4 0  9991
2 61214  53.1599  97.7598 0001486 107.4266 252.6899 15.34401338101609
STARLINK-32436          
1 61215U 24171R   26194.17195564  .00002027  00000+0  71107-4 0  9990
2 61215  53.1579  97.9423 0001313  97.6932 262.4220 15.34396060101608
STARLINK-32425          
1 61216U 24171S   26193.91388691  .00000732  00000+0  35336-4 0  9992
2 61216  53.1600 100.5977 0001396  88.3247 271.7915 15.31707580101543
STARLINK-32342          
1 61217U 24171T   26193.90455007  .00000910  00000+0  41083-4 0  9992
2 61217  53.1603 100.5382 0001424 101.9608 258.1553 15.31707573102452
STARLINK-32423          
1 61218U 24171U   26194.17021390  .00001317  00000+0  54197-4 0  9999
2 61218  53.1605  99.3540 0001332 105.6393 254.4755 15.31711241102490
STARLINK-32248          
1 61219U 24171V   26194.09562849  .00001695  00000+0  66341-4 0  9993
2 61219  53.1608  99.5932 0001417  91.8157 268.3007 15.31713892102486
STARLINK-11300 [DTC]    
1 61243U 24175A   26194.35697580  .00000483  00000+0  88436-5 0  9998
2 61243  53.1605 156.7952 0001157  81.1480 278.9669 15.69715651103107
STARLINK-11276 [DTC]    
1 61244U 24175B   26194.28840329  .00000219  00000+0  66617-5 0  9996
2 61244  53.1599 157.0765 0001091  97.7575 262.3567 15.69712030103091
STARLINK-11280 [DTC]    
1 61245U 24175C   26194.27860551 -.00004095  00000+0 -28932-4 0  9990
2 61245  53.1541 157.0198 0002462  84.3455 275.7843 15.69710583103097
STARLINK-11308 [DTC]    
1 61246U 24175D   26194.28349681  .00000350  00000+0  77453-5 0  9999
2 61246  53.1590 157.0428 0001326 110.7984 249.3176 15.69713237103092
STARLINK-11305 [DTC]    
1 61247U 24175E   26194.40102654 -.00000171  00000+0  34422-5 0  9992
2 61247  53.1597 156.3516 0001022  94.4326 265.6809 15.69715162103117
STARLINK-11317 [DTC]    
1 61248U 24175F   26194.33244605  .00001607  00000+0  18102-4 0  9998
2 61248  53.1585 156.6313 0000609 125.2562 234.8513 15.69724538103104
STARLINK-11293 [DTC]    
1 61249U 24175G   26194.32754064 -.00003065  00000+0 -20440-4 0  9993
2 61249  53.1585 156.5996 0000567  66.3456 293.7622 15.69728656103101
STARLINK-11319 [DTC]    
1 61251U 24175J   26194.31783287  .00000492  00000+0  89129-5 0  9993
2 61251  53.1592 157.2693 0000880  54.2752 305.8347 15.69713477103099
STARLINK-11318 [DTC]    
1 61252U 24175K   26193.29422465 -.00000292  00000+0  24432-5 0  9993
2 61252  53.1603 162.2554 0000946 106.2582 253.8540 15.69710980104103
STARLINK-11311 [DTC]    
1 61253U 24175L   26194.30802441  .00002618  00000+0  26452-4 0  9999
2 61253  53.1625 157.1998 0000827 113.2358 246.8747 15.69710571104309
STARLINK-11306 [DTC]    
1 61254U 24175M   26194.30309654 -.00023995  00000+0 -19278-3 0  9998
2 61254  53.1590 157.1691 0000605   5.3981 354.7043 15.69833807104292
STARLINK-11313 [DTC]    
1 61255U 24175N   26193.97986726 -.00000967  00000+0 -31257-5 0  9999
2 61255  53.1599 158.7043 0000825  95.4453 264.6659 15.69715869103049
STARLINK-32431          
1 61256U 24175P   26193.77809663  .00002226  00000+0  76998-4 0  9990
2 61256  53.1616 331.7108 0001171  92.8614 267.2523 15.34393673100627
STARLINK-32432          
1 61257U 24175Q   26193.77178077  .00004412  00000+0  14181-3 0  9993
2 61257  53.1623 331.6703 0001865  45.5770 314.5385 15.34365356100623
STARLINK-32382          
1 61258U 24175R   26193.75916532  .00001289  00000+0  49281-4 0  9997
2 61258  53.1598 331.5959 0001210  69.2601 290.8531 15.34387723100628
STARLINK-32435          
1 61259U 24175S   26193.67929122  .00013176  00000+0  40019-3 0  9995
2 61259  53.1592 331.8121 0000702  74.3412 285.7668 15.34417862100610
STARLINK-32474          
1 61260U 24175T   26193.66045145  .00007369  00000+0  22904-3 0  9990
2 61260  53.1609 332.4005 0000934  90.4426 269.6684 15.34394017100604
STARLINK-32447          
1 61261U 24175U   26194.37063039 -.00001371  00000+0 -29462-4 0  9998
2 61261  53.1619 329.0123 0001145  88.8485 271.2649 15.34398750100710
STARLINK-32446          
1 61262U 24175V   26194.39789470 -.00000616  00000+0 -71033-5 0  9998
2 61262  53.1602 328.4729 0000659 101.5008 258.6068 15.34412395100728
STARLINK-32174          
1 61509U 24183A   26194.43734750  .00002340  00000+0  80372-4 0  9996
2 61509  53.1597 264.2583 0001111  84.1351 275.9779 15.34394809 99100
STARLINK-32139          
1 61510U 24183B   26194.48974904  .00002182  00000+0  82047-4 0  9995
2 61510  53.1592 277.3745 0001731  98.1758 261.9440 15.31703064 98929
STARLINK-32140          
1 61511U 24183C   26194.47107753 -.00000107  00000+0  83096-5 0  9997
2 61511  53.1600 277.2589 0001137  74.1052 286.0075 15.31710415 98926
