OBJECT_NAME,OBJECT_ID,EPOCH,MEAN_MOTION,ECCENTRICITY,INCLINATION,RA_OF_ASC_NODE,ARG_OF_PERICENTER,MEAN_ANOMALY,EPHEMERIS_TYPE,CLASSIFICATION_TYPE,NORAD_CAT_ID,ELEMENT_SET_NO,REV_AT_EPOCH,BSTAR,MEAN_MOTION_DOT,MEAN_MOTION_DDOT
STARLINK-11310 [DTC],2024-171N,2026-07-13T11:44:32.350848,15.69690501,.0000941,53.1589,276.3574,56.5295,303.5812,0,U,61212,999,10415,-.2102E-4,-.3132E-4,0
STARLINK-32386,2024-171P,2026-07-13T03:10:02.440416,15.34398816,.0001342,53.1598,97.6968,94.6164,265.4992,0,U,61213,999,10160,.11135683E-3,.3388E-4,0
STARLINK-32392,2024-171Q,2026-07-13T03:25:11.060832,15.34401338,.00014863,53.1599,97.7598,107.4266,252.6899,0,U,61214,999,10160,.62288134E-4,.1729E-4,0
STARLINK-32436,2024-171R,2026-07-13T04:07:36.967296,15.34396060,.0001313,53.1579,97.9423,97.6932,262.4220,0,U,61215,999,10160,.71107E-4,.2027E-4,0
STARLINK-32425,2024-171S,2026-07-12T21:55:59.829024,15.31707580,.00013966,53.1600,100.5977,88.3247,271.7915,0,U,61216,999,10154,.35335904E-4,.732E-5,0
STARLINK-32342,2024-171T,2026-07-12T21:42:33.126048,15.31707573,.00014248,53.1603,100.5382,101.9608,258.1553,0,U,61217,999,10245,.41082583E-4,.91E-5,0
STARLINK-32423,2024-171U,2026-07-13T04:05:06.480960,15.31711241,.0001332,53.1605,99.3540,105.6393,254.4755,0,U,61218,999,10249,.54197E-4,.1317E-4,0
STARLINK-32248,2024-171V,2026-07-13T02:17:42.301536,15.31713892,.00014174,53.1608,99.5932,91.8157,268.3007,0,U,61219,999,10248,.66341462E-4,.1695E-4,0
STARLINK-11300 [DTC],2024-175A,2026-07-13T08:34:02.709120,15.69715651,.0001157,53.1605,156.7952,81.1480,278.9669,0,U,61243,999,10310,.88436E-5,.483E-5,0
STARLINK-11276 [DTC],2024-175B,2026-07-13T06:55:18.044256,15.69712030,.0001091,53.1599,157.0765,97.7575,262.3567,0,U,61244,999,10309,.66617E-5,.219E-5,0
STARLINK-11280 [DTC],2024-175C,2026-07-13T06:41:11.516064,15.69710583,.0002462,53.1541,157.0198,84.3455,275.7843,0,U,61245,999,10309,-.28932E-4,-.4095E-4,0
STARLINK-11308 [DTC],2024-175D,2026-07-13T06:48:14.124384,15.69713237,.0001326,53.1590,157.0428,110.7984,249.3176,0,U,61246,999,10309,.77453E-5,.35E-5,0
STARLINK-11305 [DTC],2024-175E,2026-07-13T09:37:28.693056,15.69715162,.0001022,53.1597,156.3516,94.4326,265.6809,0,U,61247,999,10311,.34422E-5,-.171E-5,0
STARLINK-11317 [DTC],2024-175F,2026-07-13T07:58:43.338720,15.69724538,.0000609,53.1585,156.6313,125.2562,234.8513,0,U,61248,999,10310,.18102E-4,.1607E-4,0
STARLINK-11293 [DTC],2024-175G,2026-07-13T07:51:39.511296,15.69728656,.0000567,53.1585,156.5996,66.3456,293.7622,0,U,61249,999,10310,-.2044E-4,-.3065E-4,0
STARLINK-11319 [DTC],2024-175J,2026-07-13T07:37:40.759968,15.69713477,.000088,53.1592,157.2693,54.2752,305.8347,0,U,61251,999,10309,.89129E-5,.492E-5,0
STARLINK-11318 [DTC],2024-175K,2026-07-12T07:03:41.009760,15.69710980,.0000946,53.1603,162.2554,106.2582,253.8540,0,U,61252,999,10410,.24432E-5,-.292E-5,0
STARLINK-11311 [DTC],2024-175L,2026-07-13T07:23:33.309024,15.69710571,.0000827,53.1625,157.1998,113.2358,246.8747,0,U,61253,999,10430,.26452E-4,.2618E-4,0
STARLINK-11306 [DTC],2024-175M,2026-07-13T07:16:27.541056,15.69833807,.0000605,53.1590,157.1691,5.3981,354.7043,0,U,61254,999,10429,-.19278E-3,-.23995E-3,0
STARLINK-11313 [DTC],2024-175N,2026-07-12T23:31:00.531264,15.69715869,.00008252,53.1599,158.7043,95.4453,264.6659,0,U,61255,999,10304,-.3125742E-5,-.967E-5,0
STARLINK-32431,2024-175P,2026-07-12T18:40:27.548832,15.34393673,.00011715,53.1616,331.7108,92.8614,267.2523,0,U,61256,999,10062,.76998146E-4,.2226E-4,0
STARLINK-32432,2024-175Q,2026-07-12T18:31:21.858528,15.34365356,.00018658,53.1623,331.6703,45.5770,314.5385,0,U,61257,999,10062,.14180796E-3,.4412E-4,0
STARLINK-32382,2024-175R,2026-07-12T18:13:11.883648,15.34387723,.00012103,53.1598,331.5959,69.2601,290.8531,0,U,61258,999,10062,.49281476E-4,.1289E-4,0
STARLINK-32435,2024-175S,2026-07-12T16:18:10.761408,15.34417862,.00007025,53.1592,331.8121,74.3412,285.7668,0,U,61259,999,10061,.40018596E-3,.13176E-3,0
STARLINK-32474,2024-175T,2026-07-12T15:51:03.005280,15.34394017,.00009346,53.1609,332.4005,90.4426,269.6684,0,U,61260,999,10060,.22903926E-3,.7369E-4,0
STARLINK-32447,2024-175U,2026-07-13T08:53:42.465696,15.34398750,.0001145,53.1619,329.0123,88.8485,271.2649,0,U,61261,999,10071,-.29462E-4,-.1371E-4,0
STARLINK-32446,2024-175V,2026-07-13T09:32:58.102080,15.34412395,.0000659,53.1602,328.4729,101.5008,258.6068,0,U,61262,999,10072,-.71033E-5,-.616E-5,0
STARLINK-32174,2024-183A,2026-07-13T10:29:46.824000,15.34394809,.0001111,53.1597,264.2583,84.1351,275.9779,0,U,61509,999,9910,.80372E-4,.234E-4,0
STARLINK-32139,2024-183B,2026-07-13T11:45:14.317056,15.31703064,.0001731,53.1592,277.3745,98.1758,261.9440,0,U,61510,999,9892,.82047E-4,.2182E-4,0
STARLINK-32140,2024-183C,2026-07-13T11:18:21.098592,15.31710415,.0001137,53.1600,277.2589,74.1052,286.0075,0,U,61511,999,9892,.83096E-5,-.107E-5,0
